[{"OBJECT_NAME":"ONEWEB-0276","OBJECT_ID":"2021-060AD","EPOCH":"2026-03-09T22:25:54.137568","MEAN_MOTION":13.16593566,"ECCENTRICITY":0.00018143,"INCLINATION":87.9003,"RA_OF_ASC_NODE":248.5167,"ARG_OF_PERICENTER":94.1873,"MEAN_ANOMALY":265.9465,"EPHEMERIS_TYPE":0,"CLASSIFICATION_TYPE":"U","NORAD_CAT_ID":48994,"ELEMENT_SET_NO":999,"REV_AT_EPOCH":22651,"BSTAR":0.00020599833,"MEAN_MOTION_DOT":9.2e-7,"MEAN_MOTION_DDOT":0},{"OBJECT_NAME":"COSMOS 203","OBJECT_ID":"1968-011A","EPOCH":"2026-03-09T23:04:05.773152","MEAN_MOTION":13.18301238,"ECCENTRICITY":0.00116371,"INCLINATION":74.0493,"RA_OF_ASC_NODE":242.7825,"ARG_OF_PERICENTER":100.2943,"MEAN_ANOMALY":14.0279,"EPHEMERIS_TYPE":0,"CLASSIFICATION_TYPE":"U","NORAD_CAT_ID":3129,"ELEMENT_SET_NO":999,"REV_AT_EPOCH":79290,"BSTAR":0.00051334584,"MEAN_MOTION_DOT":1.82e-6,"MEAN_MOTION_DDOT":0}]
